{"fetched_at":"2026-07-11T06:35:05.049Z","source":"https://celestrak.org/NORAD/elements/gp.php?GROUP=kuiper&FORMAT=JSON","constellation":"kuiper","records":[{"OBJECT_NAME":"KUIPER-00629","OBJECT_ID":"2026-151W","EPOCH":"2026-07-10T20:00:01.999008","CLASSIFICATION_TYPE":"U","MEAN_MOTION":15.36893575,"ECCENTRICITY":0.0007476,"INCLINATION":51.8744,"RA_OF_ASC_NODE":201.5024,"ARG_OF_PERICENTER":134.0377,"MEAN_ANOMALY":225.4875,"EPHEMERIS_TYPE":0,"NORAD_CAT_ID":69783,"ELEMENT_SET_NO":999,"REV_AT_EPOCH":166,"BSTAR":0.00087052,"MEAN_MOTION_DOT":0.00031658,"MEAN_MOTION_DDOT":0},{"OBJECT_NAME":"KUIPER-00631","OBJECT_ID":"2026-151X","EPOCH":"2026-07-10T20:00:01.999008","CLASSIFICATION_TYPE":"U","MEAN_MOTION":15.36665336,"ECCENTRICITY":0.0008033,"INCLINATION":51.8711,"RA_OF_ASC_NODE":201.5174,"ARG_OF_PERICENTER":141.3579,"MEAN_ANOMALY":211.0933,"EPHEMERIS_TYPE":0,"NORAD_CAT_ID":69784,"ELEMENT_SET_NO":999,"REV_AT_EPOCH":130,"BSTAR":0.00087095,"MEAN_MOTION_DOT":0.00031443,"MEAN_MOTION_DDOT":0},{"OBJECT_NAME":"KUIPER-00634","OBJECT_ID":"2026-151Y","EPOCH":"2026-07-10T20:00:01.999008","CLASSIFICATION_TYPE":"U","MEAN_MOTION":15.37658286,"ECCENTRICITY":0.0003792,"INCLINATION":51.8773,"RA_OF_ASC_NODE":201.4511,"ARG_OF_PERICENTER":123.2071,"MEAN_ANOMALY":260.7743,"EPHEMERIS_TYPE":0,"NORAD_CAT_ID":69785,"ELEMENT_SET_NO":999,"REV_AT_EPOCH":130,"BSTAR":0.00086322,"MEAN_MOTION_DOT":0.00032165,"MEAN_MOTION_DDOT":0},{"OBJECT_NAME":"KUIPER-00639","OBJECT_ID":"2026-151Z","EPOCH":"2026-07-10T20:00:01.999008","CLASSIFICATION_TYPE":"U","MEAN_MOTION":15.36021318,"ECCENTRICITY":0.0009808,"INCLINATION":51.8685,"RA_OF_ASC_NODE":201.5449,"ARG_OF_PERICENTER":145.7577,"MEAN_ANOMALY":193.136,"EPHEMERIS_TYPE":0,"NORAD_CAT_ID":69786,"ELEMENT_SET_NO":999,"REV_AT_EPOCH":130,"BSTAR":0.00076879,"MEAN_MOTION_DOT":0.00027132,"MEAN_MOTION_DDOT":0},{"OBJECT_NAME":"KUIPER-00641","OBJECT_ID":"2026-151AA","EPOCH":"2026-07-10T20:00:01.999008","CLASSIFICATION_TYPE":"U","MEAN_MOTION":15.35228839,"ECCENTRICITY":0.0010919,"INCLINATION":51.8673,"RA_OF_ASC_NODE":201.5737,"ARG_OF_PERICENTER":148.5347,"MEAN_ANOMALY":175.9024,"EPHEMERIS_TYPE":0,"NORAD_CAT_ID":69787,"ELEMENT_SET_NO":999,"REV_AT_EPOCH":197,"BSTAR":0.0010757,"MEAN_MOTION_DOT":0.0003722,"MEAN_MOTION_DDOT":0},{"OBJECT_NAME":"KUIPER-00644","OBJECT_ID":"2026-151AB","EPOCH":"2026-07-10T20:00:01.999008","CLASSIFICATION_TYPE":"U","MEAN_MOTION":15.36481887,"ECCENTRICITY":0.0008719,"INCLINATION":51.8736,"RA_OF_ASC_NODE":201.5286,"ARG_OF_PERICENTER":143.9479,"MEAN_ANOMALY":202.8329,"EPHEMERIS_TYPE":0,"NORAD_CAT_ID":69788,"ELEMENT_SET_NO":999,"REV_AT_EPOCH":227,"BSTAR":0.00086517,"MEAN_MOTION_DOT":0.0003105,"MEAN_MOTION_DDOT":0},{"OBJECT_NAME":"KUIPER-00646","OBJECT_ID":"2026-151AC","EPOCH":"2026-07-10T20:00:01.999008","CLASSIFICATION_TYPE":"U","MEAN_MOTION":15.3594307,"ECCENTRICITY":0.0010014,"INCLINATION":51.8699,"RA_OF_ASC_NODE":201.5415,"ARG_OF_PERICENTER":147.804,"MEAN_ANOMALY":192.6354,"EPHEMERIS_TYPE":0,"NORAD_CAT_ID":69789,"ELEMENT_SET_NO":999,"REV_AT_EPOCH":130,"BSTAR":0.000814,"MEAN_MOTION_DOT":0.00028685,"MEAN_MOTION_DDOT":0},{"OBJECT_NAME":"KUIPER-00647","OBJECT_ID":"2026-151AD","EPOCH":"2026-07-10T20:00:01.999008","CLASSIFICATION_TYPE":"U","MEAN_MOTION":15.35612669,"ECCENTRICITY":0.0010635,"INCLINATION":51.8661,"RA_OF_ASC_NODE":201.5685,"ARG_OF_PERICENTER":148.6344,"MEAN_ANOMALY":178.271,"EPHEMERIS_TYPE":0,"NORAD_CAT_ID":69790,"ELEMENT_SET_NO":999,"REV_AT_EPOCH":211,"BSTAR":0.00078969,"MEAN_MOTION_DOT":0.00027522,"MEAN_MOTION_DDOT":0},{"OBJECT_NAME":"KUIPER-00662","OBJECT_ID":"2026-151AE","EPOCH":"2026-07-10T20:00:01.999008","CLASSIFICATION_TYPE":"U","MEAN_MOTION":15.3657776,"ECCENTRICITY":0.0008672,"INCLINATION":51.8724,"RA_OF_ASC_NODE":201.5228,"ARG_OF_PERICENTER":138.9083,"MEAN_ANOMALY":210.798,"EPHEMERIS_TYPE":0,"NORAD_CAT_ID":69791,"ELEMENT_SET_NO":999,"REV_AT_EPOCH":130,"BSTAR":0.00086675,"MEAN_MOTION_DOT":0.00031204,"MEAN_MOTION_DDOT":0}]}
